H1 CPF  1  DGF 2022 10 31 19  8041 larets     NONE      
H2   304206 5557    27944 2022 10 24 00 00 00 2022 10 31 00 00 00    30 1 1  0 0 0
H5  0.0650
H9
10 0 59876  50400.000000  0       6373232.628        -90210.073      -3035069.440
10 0 59876  50430.000000  0       6273507.641       -138269.800      -3234498.445
10 0 59876  50460.000000  0       6167208.002       -185738.491      -3430621.223
10 0 59876  50490.000000  0       6054445.446       -232539.494      -3623237.923
10 0 59876  50520.000000  0       5935338.600       -278597.357      -3812152.376
10 0 59876  50550.000000  0       5810012.847       -323837.937      -3997172.293
10 0 59876  50580.000000  0       5678600.180       -368188.502      -4178109.462
10 0 59876  50610.000000  0       5541239.054       -411577.835      -4354779.934
10 0 59876  50640.000000  0       5398074.227       -453936.332      -4527004.207
10 0 59876  50670.000000  0       5249256.603       -495196.098      -4694607.407
10 0 59876  50700.000000  0       5094943.056       -535291.043      -4857419.458
10 0 59876  50730.000000  0       4935296.262       -574156.973      -5015275.257
10 0 59876  50760.000000  0       4770484.516       -611731.679      -5168014.831
10 0 59876  50790.000000  0       4600681.543       -647955.025      -5315483.499
10 0 59876  50820.000000  0       4426066.312       -682769.030      -5457532.022
10 0 59876  50850.000000  0       4246822.831       -716117.949      -5594016.748
10 0 59876  50880.000000  0       4063139.953       -747948.350      -5724799.751
10 0 59876  50910.000000  0       3875211.163       -778209.189      -5849748.969
10 0 59876  50940.000000  0       3683234.365       -806851.880      -5968738.319
10 0 59876  50970.000000  0       3487411.672       -833830.359      -6081647.828
10 0 59876  51000.000000  0       3287949.183       -859101.145      -6188363.736
10 0 59876  51030.000000  0       3085056.763       -882623.402      -6288778.607
10 0 59876  51060.000000  0       2878947.819       -904358.990      -6382791.427
10 0 59876  51090.000000  0       2669839.071       -924272.515      -6470307.696
10 0 59876  51120.000000  0       2457950.320       -942331.383      -6551239.519
10 0 59876  51150.000000  0       2243504.223       -958505.836      -6625505.680
10 0 59876  51180.000000  0       2026726.048       -972768.999      -6693031.721
10 0 59876  51210.000000  0       1807843.447       -985096.918      -6753750.011
10 0 59876  51240.000000  0       1587086.206       -995468.589      -6807599.802
10 0 59876  51270.000000  0       1364686.014      -1003865.988      -6854527.290
10 0 59876  51300.000000  0       1140876.215      -1010274.099      -6894485.660
10 0 59876  51330.000000  0        915891.560      -1014680.927      -6927435.130
10 0 59876  51360.000000  0        689967.968      -1017077.516      -6953342.983
10 0 59876  51390.000000  0        463342.277      -1017457.963      -6972183.592
10 0 59876  51420.000000  0        236251.998      -1015819.424      -6983938.439
10 0 59876  51450.000000  0          8935.078      -1012162.124      -6988596.136
10 0 59876  51480.000000  0       -218370.351      -1006489.352      -6986152.430
10 0 59876  51510.000000  0       -445426.218       -998807.461      -6976610.211
10 0 59876  51540.000000  0       -671994.762       -989125.863      -6959979.508
10 0 59876  51570.000000  0       -897838.777       -977457.013      -6936277.476
10 0 59876  51600.000000  0      -1122721.860       -963816.397      -6905528.373
10 0 59876  51630.000000  0      -1346408.653       -948222.505      -6867763.544
10 0 59876  51660.000000  0      -1568665.085       -930696.817      -6823021.384
10 0 59876  51690.000000  0      -1789258.622       -911263.769      -6771347.303
10 0 59876  51720.000000  0      -2007958.499       -889950.722      -6712793.675
10 0 59876  51750.000000  0      -2224535.959       -866787.933      -6647419.789
10 0 59876  51780.000000  0      -2438764.489       -841808.510      -6575291.794
10 0 59876  51810.000000  0      -2650420.047       -815048.371      -6496482.638
10 0 59876  51840.000000  0      -2859281.299       -786546.200      -6411072.004
10 0 59876  51870.000000  0      -3065129.851       -756343.394      -6319146.235
10 0 59876  51900.000000  0      -3267750.478       -724484.015      -6220798.258
10 0 59876  51930.000000  0      -3466931.350       -691014.724      -6116127.494
10 0 59876  51960.000000  0      -3662464.262       -655984.731      -6005239.762
10 0 59876  51990.000000  0      -3854144.847       -619445.719      -5888247.179
10 0 59876  52020.000000  0      -4041772.798       -581451.782      -5765268.049
10 0 59876  52050.000000  0      -4225152.071       -542059.354      -5636426.753
10 0 59876  52080.000000  0      -4404091.099       -501327.131      -5501853.628
10 0 59876  52110.000000  0      -4578402.991       -459315.997      -5361684.842
10 0 59876  52140.000000  0      -4747905.735       -416088.940      -5216062.266
10 0 59876  52170.000000  0      -4912422.389       -371710.973      -5065133.336
10 0 59876  52200.000000  0      -5071781.278       -326249.043      -4909050.910
10 0 59876  52230.000000  0      -5225816.172       -279771.946      -4747973.123
10 0 59876  52260.000000  0      -5374366.473       -232350.230      -4582063.234
10 0 59876  52290.000000  0      -5517277.396       -184056.103      -4411489.462
10 0 59876  52320.000000  0      -5654400.131       -134963.328      -4236424.821
10 0 59876  52350.000000  0      -5785592.011        -85147.129      -4057046.945
10 0 59876  52380.000000  0      -5910716.662        -34684.082      -3873537.910
10 0 59876  52410.000000  0      -6029644.153         16347.985      -3686084.056
10 0 59876  52440.000000  0      -6142251.142         67870.098      -3494875.799
10 0 59876  52470.000000  0      -6248421.013        119802.249      -3300107.443
10 0 59876  52500.000000  0      -6348044.008        172063.503      -3101976.982
10 0 59876  52530.000000  0      -6441017.346        224572.119      -2900685.899
10 0 59876  52560.000000  0      -6527245.341        277245.659      -2696438.959
10 0 59876  52590.000000  0      -6606639.504        330001.108      -2489444.003
10 0 59876  52620.000000  0      -6679118.640        382754.985      -2279911.734
10 0 59876  52650.000000  0      -6744608.946        435423.466      -2068055.501
10 0 59876  52680.000000  0      -6803044.090        487922.498      -1854091.084
10 0 59876  52710.000000  0      -6854365.291        540167.919      -1638236.466
10 0 59876  52740.000000  0      -6898521.385        592075.578      -1420711.602
10 0 59876  52770.000000  0      -6935468.880        643561.457      -1201738.193
10 0 59876  52800.000000  0      -6965171.997        694541.788       -981539.446
10 0 59876  52830.000000  0      -6987602.711        744933.176       -760339.847
10 0 59876  52860.000000  0      -7002740.771        794652.715       -538364.927
10 0 59876  52890.000000  0      -7010573.725        843618.110       -315841.032
10 0 59876  52920.000000  0      -7011096.932        891747.797        -92995.084
10 0 59876  52950.000000  0      -7004313.562        938961.057        129945.651
10 0 59876  52980.000000  0      -6990234.594        985178.135        352753.803
10 0 59876  53010.000000  0      -6968878.801       1030320.360        575202.133
10 0 59876  53040.000000  0      -6940272.724       1074310.255        797063.774
10 0 59876  53070.000000  0      -6904450.642       1117071.653       1018112.464
10 0 59876  53100.000000  0      -6861454.528       1158529.809       1238122.787
10 0 59876  53130.000000  0      -6811333.997       1198611.508       1456870.404
10 0 59876  53160.000000  0      -6754146.250       1237245.179       1674132.292
10 0 59876  53190.000000  0      -6689956.001       1274360.994       1889686.974
10 0 59876  53220.000000  0      -6618835.400       1309890.975       2103314.753
10 0 59876  53250.000000  0      -6540863.947       1343769.096       2314797.934
10 0 59876  53280.000000  0      -6456128.399       1375931.381       2523921.056
10 0 59876  53310.000000  0      -6364722.666       1406316.000       2730471.112
10 0 59876  53340.000000  0      -6266747.698       1434863.362       2934237.773
10 0 59876  53370.000000  0      -6162311.369       1461516.204       3135013.599
10 0 59876  53400.000000  0      -6051528.345       1486219.681       3332594.255
10 0 59876  53430.000000  0      -5934519.954       1508921.447       3526778.717
10 0 59876  53460.000000  0      -5811414.046       1529571.736       3717369.475
10 0 59876  53490.000000  0      -5682344.845       1548123.442       3904172.735
10 0 59876  53520.000000  0      -5547452.791       1564532.189       4086998.618
10 0 59876  53550.000000  0      -5406884.387       1578756.406       4265661.342
10 0 59876  53580.000000  0      -5260792.024       1590757.388       4439979.418
10 0 59876  53610.000000  0      -5109333.815       1600499.364       4609775.823
10 0 59876  53640.000000  0      -4952673.414       1607949.550       4774878.180
10 0 59876  53670.000000  0      -4790979.834       1613078.211       4935118.930
10 0 59876  53700.000000  0      -4624427.261       1615858.705       5090335.493
10 0 59876  53730.000000  0      -4453194.858       1616267.538       5240370.431
10 0 59876  53760.000000  0      -4277466.568       1614284.401       5385071.606
10 0 59876  53790.000000  0      -4097430.915       1609892.214       5524292.328
10 0 59876  53820.000000  0      -3913280.790       1603077.159       5657891.496
10 0 59876  53850.000000  0      -3725213.248       1593828.708       5785733.741
10 0 59876  53880.000000  0      -3533429.290       1582139.656       5907689.555
10 0 59876  53910.000000  0      -3338133.643       1568006.138       6023635.425
10 0 59876  53940.000000  0      -3139534.537       1551427.655       6133453.947
10 0 59876  53970.000000  0      -2937843.475       1532407.084       6237033.937
99
